{"type": "FeatureCollection", "features": [ {"type": "Feature", "properties": {"norad_id": 36232, "name": "FENGYUN 1C DEB", "group": "fengyun-1c-debris", "lat": -32.82880664907599, "lon": 159.64009090176057, "alt_km": 914.1389313486179, "timestamp": "2025-12-27T16:33:30.510767+00:00", "meta": {"OBJECT_NAME": "FENGYUN 1C DEB", "OBJECT_ID": "1999-025DVH", "EPOCH": "2025-12-27T05:20:45.587904", "MEAN_MOTION": 14.12521948, "ECCENTRICITY": 0.0118436, "INCLINATION": 98.7059, "RA_OF_ASC_NODE": 344.8593, "ARG_OF_PERICENTER": 347.0075, "MEAN_ANOMALY": 12.8054, "EPHEMERIS_TYPE": 0, "CLASSIFICATION_TYPE": "U", "NORAD_CAT_ID": 36232, "ELEMENT_SET_NO": 999, "REV_AT_EPOCH": 61940, "BSTAR": 0.00040788, "MEAN_MOTION_DOT": 7.62e-06, "MEAN_MOTION_DDOT": 0}, "tle": {"line1": "1 36232U 99025DVH 25361.22274986  .00000762  00000+0  40788-3 0  9992", "line2": "2 36232  98.7059 344.8593 0118436 347.0075  12.8054 14.12521948619408"}}, "geometry": {"type": "Point", "coordinates": [159.64009090176057, -32.82880664907599]}}, {"type": "Feature", "properties": {"norad_id": 36234, "name": "FENGYUN 1C DEB", "group": "fengyun-1c-debris", "lat": -25.679374134130192, "lon": 74.36201701337814, "alt_km": 865.8245691816028, "timestamp": "2025-12-27T16:33:30.510779+00:00", "meta": {"OBJECT_NAME": "FENGYUN 1C DEB", "OBJECT_ID": "1999-025DVK", "EPOCH": "2025-12-08T10:31:28.850304", "MEAN_MOTION": 13.45655828, "ECCENTRICITY": 0.03174488, "INCLINATION": 99.0031, "RA_OF_ASC_NODE": 52.6849, "ARG_OF_PERICENTER": 39.1104, "MEAN_ANOMALY": 323.2521, "EPHEMERIS_TYPE": 0, "CLASSIFICATION_TYPE": "U", "NORAD_CAT_ID": 36234, "ELEMENT_SET_NO": 999, "REV_AT_EPOCH": 87889, "BSTAR": 0.00050484626, "MEAN_MOTION_DOT": 3.7e-06, "MEAN_MOTION_DDOT": 0}, "tle": {"line1": "1 36234U 99025DVK 25342.43852836  .00000370  00000+0  50485-3 0  9992", "line2": "2 36234  99.0031  52.6849 0317448  39.1104 323.2521 13.45655828878896"}}, "geometry": {"type": "Point", "coordinates": [74.36201701337814, -25.679374134130192]}}, {"type": "Feature", "properties": {"norad_id": 36236, "name": "FENGYUN 1C DEB", "group": "fengyun-1c-debris", "lat": -68.46160153246315, "lon": -162.07580754127463, "alt_km": 921.1168854289253, "timestamp": "2025-12-27T16:33:30.510789+00:00", "meta": {"OBJECT_NAME": "FENGYUN 1C DEB", "OBJECT_ID": "1999-025DVM", "EPOCH": "2025-12-10T20:13:13.163808", "MEAN_MOTION": 13.81954009, "ECCENTRICITY": 0.0149575, "INCLINATION": 98.85, "RA_OF_ASC_NODE": 25.3566, "ARG_OF_PERICENTER": 3.3066, "MEAN_ANOMALY": 356.9043, "EPHEMERIS_TYPE": 0, "CLASSIFICATION_TYPE": "U", "NORAD_CAT_ID": 36236, "ELEMENT_SET_NO": 999, "REV_AT_EPOCH": 59721, "BSTAR": 0.00040381, "MEAN_MOTION_DOT": 4.31e-06, "MEAN_MOTION_DDOT": 0}, "tle": {"line1": "1 36236U 99025DVM 25344.84251347  .00000431  00000+0  40381-3 0  9993", "line2": "2 36236  98.8500  25.3566 0149575   3.3066 356.9043 13.81954009597212"}}, "geometry": {"type": "Point", "coordinates": [-162.07580754127463, -68.46160153246315]}}, {"type": "Feature", "properties": {"norad_id": 36238, "name": "FENGYUN 1C DEB", "group": "fengyun-1c-debris", "lat": -46.36931983381446, "lon": 144.44777656947528, "alt_km": 843.566658331034, "timestamp": "2025-12-27T16:33:30.510800+00:00", "meta": {"OBJECT_NAME": "FENGYUN 1C DEB", "OBJECT_ID": "1999-025DVP", "EPOCH": "2025-12-26T08:52:56.657280", "MEAN_MOTION": 14.12394497, "ECCENTRICITY": 0.0020168, "INCLINATION": 98.6489, "RA_OF_ASC_NODE": 332.3612, "ARG_OF_PERICENTER": 240.996, "MEAN_ANOMALY": 118.9191, "EPHEMERIS_TYPE": 0, "CLASSIFICATION_TYPE": "U", "NORAD_CAT_ID": 36238, "ELEMENT_SET_NO": 999, "REV_AT_EPOCH": 87210, "BSTAR": 8.9358e-05, "MEAN_MOTION_DOT": 1.23e-06, "MEAN_MOTION_DDOT": 0}, "tle": {"line1": "1 36238U 99025DVP 25360.37010020  .00000123  00000+0  89358-4 0  9998", "line2": "2 36238  98.6489 332.3612 0020168 240.9960 118.9191 14.12394497872107"}}, "geometry": {"type": "Point", "coordinates": [144.44777656947528, -46.36931983381446]}}, {"type": "Feature", "properties": {"norad_id": 36244, "name": "FENGYUN 1C DEB", "group": "fengyun-1c-debris", "lat": 80.9335755341708, "lon": 32.53124060367577, "alt_km": 832.5846853888124, "timestamp": "2025-12-27T16:33:30.510809+00:00", "meta": {"OBJECT_NAME": "FENGYUN 1C DEB", "OBJECT_ID": "1999-025DVV", "EPOCH": "2025-12-25T18:38:39.990336", "MEAN_MOTION": 14.25065272, "ECCENTRICITY": 0.00498125, "INCLINATION": 98.9262, "RA_OF_ASC_NODE": 110.6194, "ARG_OF_PERICENTER": 246.8234, "MEAN_ANOMALY": 112.7693, "EPHEMERIS_TYPE": 0, "CLASSIFICATION_TYPE": "U", "NORAD_CAT_ID": 36244, "ELEMENT_SET_NO": 999, "REV_AT_EPOCH": 92164, "BSTAR": 0.0017678365, "MEAN_MOTION_DOT": 4.153e-05, "MEAN_MOTION_DDOT": 0}, "tle": {"line1": "1 36244U 99025DVV 25359.77685174  .00004153  00000+0  17678-2 0  9996", "line2": "2 36244  98.9262 110.6194 0049812 246.8234 112.7693 14.25065272921647"}}, "geometry": {"type": "Point", "coordinates": [32.53124060367577, 80.9335755341708]}}, {"type": "Feature", "properties": {"norad_id": 36247, "name": "FENGYUN 1C DEB", "group": "fengyun-1c-debris", "lat": 39.89750718283346, "lon": -158.91033222307425, "alt_km": 891.8760230735816, "timestamp": "2025-12-27T16:33:30.510820+00:00", "meta": {"OBJECT_NAME": "FENGYUN 1C DEB", "OBJECT_ID": "1999-025DVY", "EPOCH": "2025-12-23T18:06:44.758944", "MEAN_MOTION": 14.33618414, "ECCENTRICITY": 0.01865547, "INCLINATION": 98.2674, "RA_OF_ASC_NODE": 10.345, "ARG_OF_PERICENTER": 0.9535, "MEAN_ANOMALY": 359.197, "EPHEMERIS_TYPE": 0, "CLASSIFICATION_TYPE": "U", "NORAD_CAT_ID": 36247, "ELEMENT_SET_NO": 999, "REV_AT_EPOCH": 70420, "BSTAR": 0.00052763114, "MEAN_MOTION_DOT": 1.729e-05, "MEAN_MOTION_DDOT": 0}, "tle": {"line1": "1 36247U 99025DVY 25357.75468471  .00001729  00000+0  52763-3 0  9995", "line2": "2 36247  98.2674  10.3450 0186554   0.9535 359.1970 14.33618414704206"}}, "geometry": {"type": "Point", "coordinates": [-158.91033222307425, 39.89750718283346]}}, {"type": "Feature", "properties": {"norad_id": 36254, "name": "FENGYUN 1C DEB", "group": "fengyun-1c-debris", "lat": 59.3805188138208, "lon": 156.16958266700277, "alt_km": 512.8977911426673, "timestamp": "2025-12-27T16:33:30.510830+00:00", "meta": {"OBJECT_NAME": "FENGYUN 1C DEB", "OBJECT_ID": "1999-025DWF", "EPOCH": "2025-12-05T14:18:33.769152", "MEAN_MOTION": 15.16034114, "ECCENTRICITY": 0.00460205, "INCLINATION": 99.5281, "RA_OF_ASC_NODE": 291.8918, "ARG_OF_PERICENTER": 66.714, "MEAN_ANOMALY": 293.892, "EPHEMERIS_TYPE": 0, "CLASSIFICATION_TYPE": "U", "NORAD_CAT_ID": 36254, "ELEMENT_SET_NO": 999, "REV_AT_EPOCH": 60668, "BSTAR": 0.005730812, "MEAN_MOTION_DOT": 0.00114745, "MEAN_MOTION_DDOT": 0}, "tle": {"line1": "1 36254U 99025DWF 25339.59622418  .00114745  00000+0  57308-2 0  9990", "line2": "2 36254  99.5281 291.8918 0046020  66.7140 293.8920 15.16034114606685"}}, "geometry": {"type": "Point", "coordinates": [156.16958266700277, 59.3805188138208]}}, {"type": "Feature", "properties": {"norad_id": 36255, "name": "FENGYUN 1C DEB", "group": "fengyun-1c-debris", "lat": 72.40359921492745, "lon": -107.86595956508353, "alt_km": 730.053272956332, "timestamp": "2025-12-27T16:33:30.510842+00:00", "meta": {"OBJECT_NAME": "FENGYUN 1C DEB", "OBJECT_ID": "1999-025DWG", "EPOCH": "2025-12-19T13:28:01.680384", "MEAN_MOTION": 14.36594643, "ECCENTRICITY": 0.0064178, "INCLINATION": 99.4355, "RA_OF_ASC_NODE": 274.859, "ARG_OF_PERICENTER": 143.5444, "MEAN_ANOMALY": 35.1872, "EPHEMERIS_TYPE": 0, "CLASSIFICATION_TYPE": "U", "NORAD_CAT_ID": 36255, "ELEMENT_SET_NO": 999, "REV_AT_EPOCH": 64108, "BSTAR": 0.00048244, "MEAN_MOTION_DOT": 1.401e-05, "MEAN_MOTION_DDOT": 0}, "tle": {"line1": "1 36255U 99025DWG 25353.56113056  .00001401  00000+0  48244-3 0  9991", "line2": "2 36255  99.4355 274.8590 0064178 143.5444  35.1872 14.36594643641084"}}, "geometry": {"type": "Point", "coordinates": [-107.86595956508353, 72.40359921492745]}}, {"type": "Feature", "properties": {"norad_id": 36258, "name": "FENGYUN 1C DEB", "group": "fengyun-1c-debris", "lat": 79.52089977367257, "lon": -87.09753026447555, "alt_km": 520.5505795030376, "timestamp": "2025-12-27T16:33:30.510854+00:00", "meta": {"OBJECT_NAME": "FENGYUN 1C DEB", "OBJECT_ID": "1999-025DWK", "EPOCH": "2025-12-27T07:59:55.893984", "MEAN_MOTION": 14.74924519, "ECCENTRICITY": 0.0173524, "INCLINATION": 99.0863, "RA_OF_ASC_NODE": 32.5924, "ARG_OF_PERICENTER": 80.4935, "MEAN_ANOMALY": 281.5834, "EPHEMERIS_TYPE": 0, "CLASSIFICATION_TYPE": "U", "NORAD_CAT_ID": 36258, "ELEMENT_SET_NO": 999, "REV_AT_EPOCH": 91037, "BSTAR": 0.00035017, "MEAN_MOTION_DOT": 2.928e-05, "MEAN_MOTION_DDOT": 0}, "tle": {"line1": "1 36258U 99025DWK 25361.33328581  .00002928  00000+0  35017-3 0  9998", "line2": "2 36258  99.0863  32.5924 0173524  80.4935 281.5834 14.74924519910374"}}, "geometry": {"type": "Point", "coordinates": [-87.09753026447555, 79.52089977367257]}}, {"type": "Feature", "properties": {"norad_id": 36260, "name": "FENGYUN 1C DEB", "group": "fengyun-1c-debris", "lat": -70.57994346458116, "lon": 29.057469636819537, "alt_km": 846.8436778742598, "timestamp": "2025-12-27T16:33:30.510866+00:00", "meta": {"OBJECT_NAME": "FENGYUN 1C DEB", "OBJECT_ID": "1999-025DWM", "EPOCH": "2025-12-24T19:20:24.734112", "MEAN_MOTION": 14.15381135, "ECCENTRICITY": 0.00153864, "INCLINATION": 98.6615, "RA_OF_ASC_NODE": 0.6385, "ARG_OF_PERICENTER": 213.0221, "MEAN_ANOMALY": 146.9994, "EPHEMERIS_TYPE": 0, "CLASSIFICATION_TYPE": "U", "NORAD_CAT_ID": 36260, "ELEMENT_SET_NO": 999, "REV_AT_EPOCH": 87979, "BSTAR": 0.00015734209, "MEAN_MOTION_DOT": 2.64e-06, "MEAN_MOTION_DDOT": 0}, "tle": {"line1": "1 36260U 99025DWM 25358.80584183  .00000264  00000+0  15734-3 0  9996", "line2": "2 36260  98.6615   0.6385 0015386 213.0221 146.9994 14.15381135879794"}}, "geometry": {"type": "Point", "coordinates": [29.057469636819537, -70.57994346458116]}}]}